LEMUR-2-DEMBITZ         
1 42842U 17042T   26068.47492167  .00020231  00000+0  76561-3 0  9991
2 42842  97.3807 250.9241 0006961  17.1421 343.0051 15.26947128473114
STARLINK-31544          
1 59399U 24064B   26068.04493470  .00000291  00000+0  20080-4 0  9999
2 59399  43.0027  60.1166 0001292 271.7912  88.2792 15.27581907109120
